#dP2022 12 15  0  0  0.00000000      96 __u+U IGS14 FIT  IAC
## 2240 345600.00000000   900.00000000 59928 0.0000000000000
+  117   C06C07C08C09C10C11C12C13C14C16C19C20C21C22C23C24C25
+        C26C27C28C29C30C32C33C34C35C36C37C38C39C40C41C42C43
+        C44C45C46E01E02E03E04E05E07E08E09E10E12E13E14E15E18
+        E19E21E24E25E26E27E30E31E33E34E36G01G02G03G04G05G06
+        G07G08G09G10G11G12G13G14G15G16G17G18G19G20G21G22G23
+        G24G25G26G27G29G30G31G32J02J03J04R01R02R03R04R05R07
+        R08R09R11R12R13R14R15R17R18R19R20R21R22R24R25  0  0
++         7  8  7  7  8  7  7  7  7  7  6  6  6  6  6  6  6
++         6  6  6  6  6  6  6  6  6  6  6  6  6  6  6  6  6
++         6  6  6  4  4  5  4  4  4  4  4  4  4  4  4  4  5
++         4  4  5  4  4  4  4  4  4  4  4  3  4  4  4  4  4
++         3  3  3  4  4  4  3  4  3  4  3  3  4  4  3  4  3
++         3  3  4  4  3  3  4  4  9  9  9  8  6  7  6  7  7
++         7  7  7  7  7  7  7  7  7  8  8  7  7  7  8  0  0
%c M  cc GPS ccc cccc cccc cccc cccc ccccc ccccc ccccc ccccc
%c cc cc ccc ccc cccc cccc cccc cccc ccccc ccccc ccccc ccccc
%f  1.2500000  1.025000000  0.00000000000  0.000000000000000
%f  0.0000000  0.000000000  0.00000000000  0.000000000000000
%i    0    0    0    0      0      0      0      0         0
%i    0    0    0    0      0      0      0      0         0
/* INFORMATION & ANALYSIS CENTER (IAC)            FINAL DATA
/* S/V CLOCKS ARE ALIGNED TO GNSS TIME                      
/* G:C1WC2W R:C1PC2P E:C1XC5X C:C2IC6I J:C1CC2S             
/* PCV:IGS20_2239 OL/AL:FES2004  NONE     YN ORB:CoN CLK:CoN
*  2022 12 15  6 30  0.00000000
PC06 -12233.073975  24638.305078  31875.763391    217.906616
PC07 -11062.361552  40766.511115   -829.127669 999999.999999
PC08   1612.410105  29231.949299 -30260.267064    522.730183
PC09  -3799.268772  24808.968500  34204.236396   -782.516806
PC10  -6186.832312  41444.789361  -6344.330657     51.193874
PC11  10627.421425 -16243.314350  20113.223795   -235.035120
PC12  25044.375609 -10660.110074   6173.016527    347.001212
PC13   7434.106895  32717.361092 -25187.374333    158.563698
PC14   6976.236239 -26992.292511    156.545299    267.626235
PC16 -17740.553387  23540.777672  30229.586380    101.213570
PC19   -299.531076  26386.728229   9116.752124   -903.653080
PC20 -11606.560201  24191.996399  -7699.924606    804.995729
PC21  16762.815609  -7140.776548  21143.240826   -926.337180
PC22  11685.209894  13484.912144  21455.319218   -739.228015
PC23 -20862.429768 -18422.278183   2114.431167   -871.626028
PC24  10233.004049 -12787.475019 -22611.967440   -672.821652
PC25  -9212.370365 -22371.495049 -13939.622132     39.801899
PC26  21220.815760   2210.602128 -17983.076921    -50.088177
PC27 -27243.568770   5528.166125   2355.023698     66.475518
PC28 -20832.676944  -6871.981606  17259.006221     47.429323
PC29   1627.599237  16078.814677 -22751.573087     53.952104
PC30 -18544.694022  15688.373459 -13721.127448      1.203260
PC32 -16709.002919   7189.063199 -21153.380726   -682.273227
PC33    217.207253 -26413.510064  -8989.015488   -893.833325
PC34  17575.712284 -16028.584946  14603.112109     61.453232
PC35  19861.073278   7272.078605 -18225.936488    133.846980
PC36   8078.079610  22473.639870  14443.459289   -766.582241
PC37 -21676.490368  -4039.372617  17129.480883   -881.266766
PC38  -5865.485205  26015.852213 -32589.382694     45.067234
PC39 -21164.920161  23802.073167  27549.279006     -1.077941
PC40 -18140.375911  38097.335302   2624.143210    -10.238290
PC41 -11454.468856 -14032.341062 -21181.550629   -382.212120
PC42  12221.870443 -23466.942040   8886.511988   -854.375713
PC43   -695.644518 -16395.221227  22568.767739     30.190626
PC44  27069.432455  -6354.468231  -2574.487879    145.570039
PC45  20981.912895  18203.073855  -2505.997732    -34.909778
PC46  -8600.578438  14048.293948  22515.843794    -19.679237
PE01 -12275.858260  14495.962739  22698.249794   -577.042702
PE02  12108.449619 -14830.845475 -22583.652478      8.658391
PE03  21976.042015 -19711.656455   2109.463414   -629.951980
PE04  -8718.788182  23800.869946  15282.588886    -14.448401
PE05  22621.797301  -3919.510267  18681.243364   -114.928269
PE07 -10045.911231 -13935.711149 -24106.476662     -7.283783
PE08   8763.791773 -23767.464187 -15314.436664     -2.948031
PE09   9783.885740  13980.818874  24182.480240   -764.531578
PE10  10899.854049  17207.979845 -21473.330123   -497.912694
PE12    -50.375808  16491.677372 -24576.545151   -333.452592
PE13 -20324.295235 -15439.552774  14999.312668    430.363399
PE14  20987.556323 -13346.129188  -2469.934442     85.016870
PE15    375.451514 -16353.806745  24681.191324    700.835669
PE18 -19146.573914  23666.603167  -9293.082762   -626.467464
PE19 -22963.110538  18074.004899  -4688.438437  -3740.193725
PE21 -17731.567993  -5737.244749  22998.391761   -500.430721
PE24  13026.878296  24845.868772  -9407.752122  -1002.594187
PE25  17743.617421   6068.351609 -22893.739147   -594.958232
PE26 -28880.258636  -4971.788947  -4184.572609  -1880.953670
PE27 -13530.887713 -24274.264401  10218.723312   -463.549918
PE30   -757.728666 -28168.226869  -9109.897674  -1079.244060
PE31   1394.155986  28326.154428   8463.319903   -510.706243
PE33 -20713.271876   7601.666228 -19719.766456   -455.434878
PE34  20552.205910  -7757.690070  19834.790492    -19.699858
PE36  28894.256889   5477.969189   3385.276142   -475.591320
PG01  20623.762473  14315.403739  -9496.784732    237.549247
PG02 -22682.263106 -11580.445081   7773.410296   -632.940728
PG03  12225.644504  20057.429338  12380.773980   -375.253680
PG04  13039.463440   8727.875539  21445.717640    -68.258819
PG05  -5714.669120 -25864.651453    401.500076   -108.129547
PG06  15096.730996  -8659.128386  20156.821438    540.393778
PG07  25728.939954   6072.336552  -4113.855366    274.175458
PG08   2987.968405  16568.897146 -20494.923778    -98.725563
PG09  20455.216034  -2407.767109  16715.895604   -253.202458
PG10 -12328.125273  10509.954843 -20816.927867    -16.160663
PG11   2195.175711 -15308.774000  21606.225976    -57.351658
PG12 -10367.237017 -21546.533126  11402.209203   -316.116128
PG13   6081.704211 -18620.723503 -18024.455012    442.206880
PG14  14022.386173  -7958.309853 -21081.295578    -67.865715
PG15  -5604.711938 -16523.322957 -20407.022679     -3.962609
PG16   -261.888179  25962.962024   3957.630875   -526.100805
PG17  22712.254311 -12584.848835  -5351.535688    686.037375
PG18 -25270.401947  -4152.364137  -7318.018113    -59.676838
PG19  19204.243253 -17347.717988   5086.288522    250.719149
PG20   1211.847195 -23443.562232  12659.980905    463.488007
PG21  15218.571970  15172.777127 -15493.488264    153.805237
PG22 -16500.171905  19108.377405   8380.748696    385.040583
PG23 -15452.089565  -1899.359137 -21539.385258      0.120933
PG24 -18228.107043 -14808.872722 -13141.607061     15.040915
PG25 -15220.725684 -12367.004810  17737.158980    402.175395
PG26  -6233.803621  20725.393818  15067.647044    238.418112
PG27  -8306.132651  20440.767662 -14703.256286    152.796940
PG29 -19294.849346  -1060.358367  18213.514957   -574.119817
PG30  21810.720734  -3626.722283 -14808.592013   -535.366225
PG31 -14261.971269   9819.653018  20097.562594   -203.312957
PG32 -21202.848285  15447.908086  -3233.296648   -330.189709
PJ02 -26487.216626  24601.109527  26774.468987     -0.321798
PJ03 -32353.230076  18363.060805 -15054.368864     -6.708559
PJ04 -21121.133295  32521.752513 -11561.950255    115.254884
PR01  12856.706365  -3430.300545  21758.054266     19.572191
PR02  13890.875419 -19526.540411   8882.923021    -23.396938
PR03   6344.795652 -23207.870156  -8529.317018     69.085349
PR04  -4272.806076 -13845.594953 -20974.297987    168.655856
PR05 -12701.413861   2931.562013 -21913.014344    104.569062
PR07  -5815.949092  22974.776872   9396.073934     46.108377
PR08   4600.306725  13686.733657  21071.174257    -68.563377
PR09  -7348.455677   8984.036502  22734.175528     93.106083
PR11  15349.951025  20356.152453   -993.637885     14.723557
PR12  16288.379960   8181.812469 -17812.334916     23.627287
PR13   8371.888397  -7248.595746 -22996.740711    -29.949905
PR14  -5794.263778 -20135.386193 -14531.648708     24.095373
PR15 -15520.750600 -20135.497571   2110.947216     92.330829
PR17   3101.139387 -10728.498011  22944.750836    587.091846
PR18 -14534.356763  -7706.688897  19497.562364     56.884839
PR19 -24412.029126  -2038.037495   7129.075601   -214.626270
PR20 -20737.271666   6775.045782 -13170.701938    -84.004395
PR21  -1409.383676  10575.857053 -23163.697914   -357.606550
PR22  15053.729341   8312.148976 -18814.101388     19.261651
PR24  20060.074975  -7913.085137  13635.452007    132.870762
PR25  -4124.885892  10850.760974 -22705.903893     48.929538
EOF
